FENGYUN 3A              
1 32958U 08026A   26170.09135363  .00000060  00000+0  48869-4 0  9993
2 32958  98.6883 110.8889 0009654 118.6525 241.5623 14.19571471935671
EWS-G2 (GOES 15)        
1 36411U 10008A   26170.20650097  .00000013  00000+0  00000+0 0  9991
2 36411   1.2841  82.8145 0004869  42.1564 280.4817  1.00266444 59652
FENGYUN 3B              
1 37214U 10059A   26170.20942226 -.00000041  00000+0  23023-5 0  9995
2 37214  98.9612 216.2330 0022055 178.2470 223.7417 14.14841074807717
EXACTVIEW-1 (ADS-1B)    
1 38709U 12039C   26170.20684748  .00000089  00000+0  57724-4 0  9992
2 38709  98.9780 287.6426 0011272 160.7966 199.3639 14.24985078722990
FENGYUN 3C              
1 39260U 13052A   26170.23469249  .00000068  00000+0  55867-4 0  9994
2 39260  98.4987 144.0155 0015135  21.9977 338.1845 14.15755499658851
DUBAISAT-2              
1 39419U 13066D   26170.19107926  .00002546  00000+0  15951-3 0  9993
2 39419  97.4564 160.2832 0011988  34.3921 325.8083 15.10191921686698
FENGYUN 2G              
1 40367U 14090A   26169.77205716 -.00000311  00000+0  00000+0 0  9997
2 40367   5.6437  72.7972 0003932 158.4572  53.3769  1.00271330 42017
ELEKTRO-L 2             
1 41105U 15074A   26169.03651196 -.00000126  00000+0  00000+0 0  9991
2 41105   6.6975  70.5132 0000902 256.1704 298.2263  1.00270556 38515
FENGYUN 2H              
1 43491U 18050A   26170.05322661 -.00000137  00000+0  00000+0 0  9996
2 43491   3.0369  79.0493 0001942 138.7340 148.0521  1.00269392 29451
EOS-4                   
1 51656U 22013A   26170.14963873  .00001980  00000+0  11672-3 0  9995
2 51656  97.5106 176.7692 0001853  91.3628 268.7815 15.12732601239781
