{
 "generated_at": "2026-06-19T09:28:30Z",
 "sources": [
  {
   "name": "CelesTrak",
   "url": "https://celestrak.org/NORAD/elements/",
   "license": "frei verfügbar; Attribution. Ursprünglich USSPACECOM/Space-Track."
  },
  {
   "name": "GCAT (J. McDowell, planet4589.org)",
   "url": "https://planet4589.org/space/gcat/",
   "license": "CC-BY 4.0"
  }
 ],
 "satellites": [
  {
   "norad": 39419,
   "name": "DUBAISAT-2",
   "intl": "2013-066D",
   "group": "resource",
   "gcat": {
    "class": "C",
    "category": "IMG",
    "owner": "EIAST",
    "state": "UAE"
   },
   "omm": {
    "OBJECT_NAME": "DUBAISAT-2",
    "OBJECT_ID": "2013-066D",
    "EPOCH": "2026-06-19T04:35:09.248064",
    "MEAN_MOTION": 15.10191921,
    "ECCENTRICITY": 0.0011988,
    "INCLINATION": 97.4564,
    "RA_OF_ASC_NODE": 160.2832,
    "ARG_OF_PERICENTER": 34.3921,
    "MEAN_ANOMALY": 325.8083,
    "EPHEMERIS_TYPE": 0,
    "CLASSIFICATION_TYPE": "U",
    "NORAD_CAT_ID": 39419,
    "ELEMENT_SET_NO": 999,
    "REV_AT_EPOCH": 68669,
    "BSTAR": 0.00015951,
    "MEAN_MOTION_DOT": 0.00002546,
    "MEAN_MOTION_DDOT": 0
   }
  },
  {
   "norad": 41105,
   "name": "ELEKTRO-L 2",
   "intl": "2015-074A",
   "group": "weather",
   "gcat": {
    "class": "C",
    "category": "MET",
    "owner": "RGMS/NPOLO",
    "state": "RU"
   },
   "omm": {
    "OBJECT_NAME": "ELEKTRO-L 2",
    "OBJECT_ID": "2015-074A",
    "EPOCH": "2026-06-18T00:52:34.633344",
    "MEAN_MOTION": 1.00270556,
    "ECCENTRICITY": 0.00009025,
    "INCLINATION": 6.6975,
    "RA_OF_ASC_NODE": 70.5132,
    "ARG_OF_PERICENTER": 256.1704,
    "MEAN_ANOMALY": 298.2263,
    "EPHEMERIS_TYPE": 0,
    "CLASSIFICATION_TYPE": "U",
    "NORAD_CAT_ID": 41105,
    "ELEMENT_SET_NO": 999,
    "REV_AT_EPOCH": 3851,
    "BSTAR": 0,
    "MEAN_MOTION_DOT": -0.00000126,
    "MEAN_MOTION_DDOT": 0
   }
  },
  {
   "norad": 51656,
   "name": "EOS-4",
   "intl": "2022-013A",
   "group": "sar",
   "gcat": {
    "class": "C",
    "category": "IMG-R",
    "owner": "ISRO",
    "state": "IN"
   },
   "omm": {
    "OBJECT_NAME": "EOS-4",
    "OBJECT_ID": "2022-013A",
    "EPOCH": "2026-06-19T03:35:28.786272",
    "MEAN_MOTION": 15.12732601,
    "ECCENTRICITY": 0.0001853,
    "INCLINATION": 97.5106,
    "RA_OF_ASC_NODE": 176.7692,
    "ARG_OF_PERICENTER": 91.3628,
    "MEAN_ANOMALY": 268.7815,
    "EPHEMERIS_TYPE": 0,
    "CLASSIFICATION_TYPE": "U",
    "NORAD_CAT_ID": 51656,
    "ELEMENT_SET_NO": 999,
    "REV_AT_EPOCH": 23978,
    "BSTAR": 0.00011672,
    "MEAN_MOTION_DOT": 0.0000198,
    "MEAN_MOTION_DDOT": 0
   }
  },
  {
   "norad": 36411,
   "name": "EWS-G2 (GOES 15)",
   "intl": "2010-008A",
   "group": "weather",
   "gcat": {
    "class": "C",
    "category": "MET",
    "owner": "NOAA",
    "state": "US"
   },
   "omm": {
    "OBJECT_NAME": "EWS-G2 (GOES 15)",
    "OBJECT_ID": "2010-008A",
    "EPOCH": "2026-06-19T04:57:21.683808",
    "MEAN_MOTION": 1.00266444,
    "ECCENTRICITY": 0.0004869,
    "INCLINATION": 1.2841,
    "RA_OF_ASC_NODE": 82.8145,
    "ARG_OF_PERICENTER": 42.1564,
    "MEAN_ANOMALY": 280.4817,
    "EPHEMERIS_TYPE": 0,
    "CLASSIFICATION_TYPE": "U",
    "NORAD_CAT_ID": 36411,
    "ELEMENT_SET_NO": 999,
    "REV_AT_EPOCH": 5965,
    "BSTAR": 0,
    "MEAN_MOTION_DOT": 1.3e-7,
    "MEAN_MOTION_DDOT": 0
   }
  },
  {
   "norad": 38709,
   "name": "EXACTVIEW-1 (ADS-1B)",
   "intl": "2012-039C",
   "group": "resource",
   "gcat": {
    "class": "B",
    "category": "COM",
    "owner": "EXEA",
    "state": "CA"
   },
   "omm": {
    "OBJECT_NAME": "EXACTVIEW-1 (ADS-1B)",
    "OBJECT_ID": "2012-039C",
    "EPOCH": "2026-06-19T04:57:51.622272",
    "MEAN_MOTION": 14.24985078,
    "ECCENTRICITY": 0.0011272,
    "INCLINATION": 98.978,
    "RA_OF_ASC_NODE": 287.6426,
    "ARG_OF_PERICENTER": 160.7966,
    "MEAN_ANOMALY": 199.3639,
    "EPHEMERIS_TYPE": 0,
    "CLASSIFICATION_TYPE": "U",
    "NORAD_CAT_ID": 38709,
    "ELEMENT_SET_NO": 999,
    "REV_AT_EPOCH": 72299,
    "BSTAR": 0.000057724,
    "MEAN_MOTION_DOT": 8.9e-7,
    "MEAN_MOTION_DDOT": 0
   }
  },
  {
   "norad": 40367,
   "name": "FENGYUN 2G",
   "intl": "2014-090A",
   "group": "weather",
   "gcat": {
    "class": "C",
    "category": "MET",
    "owner": "NSMC",
    "state": "CN"
   },
   "omm": {
    "OBJECT_NAME": "FENGYUN 2G",
    "OBJECT_ID": "2014-090A",
    "EPOCH": "2026-06-18T18:31:45.738624",
    "MEAN_MOTION": 1.0027133,
    "ECCENTRICITY": 0.00039323,
    "INCLINATION": 5.6437,
    "RA_OF_ASC_NODE": 72.7972,
    "ARG_OF_PERICENTER": 158.4572,
    "MEAN_ANOMALY": 53.3769,
    "EPHEMERIS_TYPE": 0,
    "CLASSIFICATION_TYPE": "U",
    "NORAD_CAT_ID": 40367,
    "ELEMENT_SET_NO": 999,
    "REV_AT_EPOCH": 4201,
    "BSTAR": 0,
    "MEAN_MOTION_DOT": -0.00000311,
    "MEAN_MOTION_DDOT": 0
   }
  },
  {
   "norad": 43491,
   "name": "FENGYUN 2H",
   "intl": "2018-050A",
   "group": "weather",
   "gcat": {
    "class": "C",
    "category": "MET",
    "owner": "NSMC",
    "state": "CN"
   },
   "omm": {
    "OBJECT_NAME": "FENGYUN 2H",
    "OBJECT_ID": "2018-050A",
    "EPOCH": "2026-06-19T01:16:38.779104",
    "MEAN_MOTION": 1.00269392,
    "ECCENTRICITY": 0.0001942,
    "INCLINATION": 3.0369,
    "RA_OF_ASC_NODE": 79.0493,
    "ARG_OF_PERICENTER": 138.734,
    "MEAN_ANOMALY": 148.0521,
    "EPHEMERIS_TYPE": 0,
    "CLASSIFICATION_TYPE": "U",
    "NORAD_CAT_ID": 43491,
    "ELEMENT_SET_NO": 999,
    "REV_AT_EPOCH": 2945,
    "BSTAR": 0,
    "MEAN_MOTION_DOT": -0.00000137,
    "MEAN_MOTION_DDOT": 0
   }
  },
  {
   "norad": 32958,
   "name": "FENGYUN 3A",
   "intl": "2008-026A",
   "group": "weather",
   "gcat": {
    "class": null,
    "category": null,
    "owner": null,
    "state": null
   },
   "omm": {
    "OBJECT_NAME": "FENGYUN 3A",
    "OBJECT_ID": "2008-026A",
    "EPOCH": "2026-06-19T02:11:32.953632",
    "MEAN_MOTION": 14.19571471,
    "ECCENTRICITY": 0.0009654,
    "INCLINATION": 98.6883,
    "RA_OF_ASC_NODE": 110.8889,
    "ARG_OF_PERICENTER": 118.6525,
    "MEAN_ANOMALY": 241.5623,
    "EPHEMERIS_TYPE": 0,
    "CLASSIFICATION_TYPE": "U",
    "NORAD_CAT_ID": 32958,
    "ELEMENT_SET_NO": 999,
    "REV_AT_EPOCH": 93567,
    "BSTAR": 0.000048869,
    "MEAN_MOTION_DOT": 6e-7,
    "MEAN_MOTION_DDOT": 0
   }
  },
  {
   "norad": 37214,
   "name": "FENGYUN 3B",
   "intl": "2010-059A",
   "group": "weather",
   "gcat": {
    "class": null,
    "category": null,
    "owner": null,
    "state": null
   },
   "omm": {
    "OBJECT_NAME": "FENGYUN 3B",
    "OBJECT_ID": "2010-059A",
    "EPOCH": "2026-06-19T05:01:34.083264",
    "MEAN_MOTION": 14.14841074,
    "ECCENTRICITY": 0.0022055,
    "INCLINATION": 98.9612,
    "RA_OF_ASC_NODE": 216.233,
    "ARG_OF_PERICENTER": 178.247,
    "MEAN_ANOMALY": 223.7417,
    "EPHEMERIS_TYPE": 0,
    "CLASSIFICATION_TYPE": "U",
    "NORAD_CAT_ID": 37214,
    "ELEMENT_SET_NO": 999,
    "REV_AT_EPOCH": 80771,
    "BSTAR": 0.0000023023,
    "MEAN_MOTION_DOT": -4.1e-7,
    "MEAN_MOTION_DDOT": 0
   }
  },
  {
   "norad": 39260,
   "name": "FENGYUN 3C",
   "intl": "2013-052A",
   "group": "weather",
   "gcat": {
    "class": "C",
    "category": "MET",
    "owner": "NSMC",
    "state": "CN"
   },
   "omm": {
    "OBJECT_NAME": "FENGYUN 3C",
    "OBJECT_ID": "2013-052A",
    "EPOCH": "2026-06-19T05:37:57.431136",
    "MEAN_MOTION": 14.15755499,
    "ECCENTRICITY": 0.0015135,
    "INCLINATION": 98.4987,
    "RA_OF_ASC_NODE": 144.0155,
    "ARG_OF_PERICENTER": 21.9977,
    "MEAN_ANOMALY": 338.1845,
    "EPHEMERIS_TYPE": 0,
    "CLASSIFICATION_TYPE": "U",
    "NORAD_CAT_ID": 39260,
    "ELEMENT_SET_NO": 999,
    "REV_AT_EPOCH": 65885,
    "BSTAR": 0.000055867,
    "MEAN_MOTION_DOT": 6.8e-7,
    "MEAN_MOTION_DDOT": 0
   }
  }
 ]
}
